[{"OBJECT_NAME":"STARLINK-2707","OBJECT_ID":"2021-044AH","EPOCH":"2026-03-09T19:07:21.026496","MEAN_MOTION":15.30195068,"ECCENTRICITY":0.00012602,"INCLINATION":53.1615,"RA_OF_ASC_NODE":103.6099,"ARG_OF_PERICENTER":94.7454,"MEAN_ANOMALY":265.369,"EPHEMERIS_TYPE":0,"CLASSIFICATION_TYPE":"U","NORAD_CAT_ID":48669,"ELEMENT_SET_NO":999,"REV_AT_EPOCH":26397,"BSTAR":8.173191e-6,"MEAN_MOTION_DOT":-1.17e-6,"MEAN_MOTION_DDOT":0},{"OBJECT_NAME":"EOSSAT-1","OBJECT_ID":"2023-001AW","EPOCH":"2026-03-09T17:40:07.010400","MEAN_MOTION":15.32339828,"ECCENTRICITY":0.00112629,"INCLINATION":97.3357,"RA_OF_ASC_NODE":130.2294,"ARG_OF_PERICENTER":110.3168,"MEAN_ANOMALY":249.9285,"EPHEMERIS_TYPE":0,"CLASSIFICATION_TYPE":"U","NORAD_CAT_ID":55053,"ELEMENT_SET_NO":999,"REV_AT_EPOCH":17668,"BSTAR":0.00024844399,"MEAN_MOTION_DOT":7.695e-5,"MEAN_MOTION_DDOT":0}]
